{
 "generated_at": "2026-06-16T10:08:45Z",
 "sources": [
  {
   "name": "CelesTrak",
   "url": "https://celestrak.org/NORAD/elements/",
   "license": "frei verfügbar; Attribution. Ursprünglich USSPACECOM/Space-Track."
  },
  {
   "name": "GCAT (J. McDowell, planet4589.org)",
   "url": "https://planet4589.org/space/gcat/",
   "license": "CC-BY 4.0"
  }
 ],
 "satellites": [
  {
   "norad": 39419,
   "name": "DUBAISAT-2",
   "intl": "2013-066D",
   "group": "resource",
   "gcat": {
    "class": "C",
    "category": "IMG",
    "owner": "EIAST",
    "state": "UAE"
   },
   "omm": {
    "OBJECT_NAME": "DUBAISAT-2",
    "OBJECT_ID": "2013-066D",
    "EPOCH": "2026-06-16T05:01:34.472064",
    "MEAN_MOTION": 15.10173524,
    "ECCENTRICITY": 0.0012449,
    "INCLINATION": 97.4555,
    "RA_OF_ASC_NODE": 157.379,
    "ARG_OF_PERICENTER": 43.8372,
    "MEAN_ANOMALY": 316.3843,
    "EPHEMERIS_TYPE": 0,
    "CLASSIFICATION_TYPE": "U",
    "NORAD_CAT_ID": 39419,
    "ELEMENT_SET_NO": 999,
    "REV_AT_EPOCH": 68624,
    "BSTAR": 0.000089486,
    "MEAN_MOTION_DOT": 0.000014,
    "MEAN_MOTION_DDOT": 0
   }
  },
  {
   "norad": 41105,
   "name": "ELEKTRO-L 2",
   "intl": "2015-074A",
   "group": "weather",
   "gcat": {
    "class": "C",
    "category": "MET",
    "owner": "RGMS/NPOLO",
    "state": "RU"
   },
   "omm": {
    "OBJECT_NAME": "ELEKTRO-L 2",
    "OBJECT_ID": "2015-074A",
    "EPOCH": "2026-06-15T23:15:26.836704",
    "MEAN_MOTION": 1.00270394,
    "ECCENTRICITY": 0.0001048,
    "INCLINATION": 6.6903,
    "RA_OF_ASC_NODE": 70.5362,
    "ARG_OF_PERICENTER": 244.283,
    "MEAN_ANOMALY": 283.7788,
    "EPHEMERIS_TYPE": 0,
    "CLASSIFICATION_TYPE": "U",
    "NORAD_CAT_ID": 41105,
    "ELEMENT_SET_NO": 999,
    "REV_AT_EPOCH": 3849,
    "BSTAR": 0,
    "MEAN_MOTION_DOT": -0.00000122,
    "MEAN_MOTION_DDOT": 0
   }
  },
  {
   "norad": 51656,
   "name": "EOS-4",
   "intl": "2022-013A",
   "group": "sar",
   "gcat": {
    "class": "C",
    "category": "IMG-R",
    "owner": "ISRO",
    "state": "IN"
   },
   "omm": {
    "OBJECT_NAME": "EOS-4",
    "OBJECT_ID": "2022-013A",
    "EPOCH": "2026-06-16T04:09:06.664320",
    "MEAN_MOTION": 15.12719003,
    "ECCENTRICITY": 0.0001858,
    "INCLINATION": 97.5099,
    "RA_OF_ASC_NODE": 173.8376,
    "ARG_OF_PERICENTER": 88.1345,
    "MEAN_ANOMALY": 272.0099,
    "EPHEMERIS_TYPE": 0,
    "CLASSIFICATION_TYPE": "U",
    "NORAD_CAT_ID": 51656,
    "ELEMENT_SET_NO": 999,
    "REV_AT_EPOCH": 23933,
    "BSTAR": 0.000079518,
    "MEAN_MOTION_DOT": 0.00001328,
    "MEAN_MOTION_DDOT": 0
   }
  },
  {
   "norad": 36411,
   "name": "EWS-G2 (GOES 15)",
   "intl": "2010-008A",
   "group": "weather",
   "gcat": {
    "class": "C",
    "category": "MET",
    "owner": "NOAA",
    "state": "US"
   },
   "omm": {
    "OBJECT_NAME": "EWS-G2 (GOES 15)",
    "OBJECT_ID": "2010-008A",
    "EPOCH": "2026-06-16T04:12:21.902400",
    "MEAN_MOTION": 1.00275834,
    "ECCENTRICITY": 0.0005413,
    "INCLINATION": 1.2753,
    "RA_OF_ASC_NODE": 82.8735,
    "ARG_OF_PERICENTER": 42.3765,
    "MEAN_ANOMALY": 266.0013,
    "EPHEMERIS_TYPE": 0,
    "CLASSIFICATION_TYPE": "U",
    "NORAD_CAT_ID": 36411,
    "ELEMENT_SET_NO": 999,
    "REV_AT_EPOCH": 5962,
    "BSTAR": 0,
    "MEAN_MOTION_DOT": 1.6e-7,
    "MEAN_MOTION_DDOT": 0
   }
  },
  {
   "norad": 38709,
   "name": "EXACTVIEW-1 (ADS-1B)",
   "intl": "2012-039C",
   "group": "resource",
   "gcat": {
    "class": "B",
    "category": "COM",
    "owner": "EXEA",
    "state": "CA"
   },
   "omm": {
    "OBJECT_NAME": "EXACTVIEW-1 (ADS-1B)",
    "OBJECT_ID": "2012-039C",
    "EPOCH": "2026-06-16T04:30:06.221664",
    "MEAN_MOTION": 14.2498429,
    "ECCENTRICITY": 0.0011109,
    "INCLINATION": 98.9776,
    "RA_OF_ASC_NODE": 284.5552,
    "ARG_OF_PERICENTER": 169.1911,
    "MEAN_ANOMALY": 190.9508,
    "EPHEMERIS_TYPE": 0,
    "CLASSIFICATION_TYPE": "U",
    "NORAD_CAT_ID": 38709,
    "ELEMENT_SET_NO": 999,
    "REV_AT_EPOCH": 72256,
    "BSTAR": 0.000059879,
    "MEAN_MOTION_DOT": 9.4e-7,
    "MEAN_MOTION_DDOT": 0
   }
  },
  {
   "norad": 40367,
   "name": "FENGYUN 2G",
   "intl": "2014-090A",
   "group": "weather",
   "gcat": {
    "class": "C",
    "category": "MET",
    "owner": "NSMC",
    "state": "CN"
   },
   "omm": {
    "OBJECT_NAME": "FENGYUN 2G",
    "OBJECT_ID": "2014-090A",
    "EPOCH": "2026-06-15T22:18:38.251296",
    "MEAN_MOTION": 1.00272763,
    "ECCENTRICITY": 0.0004081,
    "INCLINATION": 5.635,
    "RA_OF_ASC_NODE": 72.8268,
    "ARG_OF_PERICENTER": 156.1097,
    "MEAN_ANOMALY": 109.6095,
    "EPHEMERIS_TYPE": 0,
    "CLASSIFICATION_TYPE": "U",
    "NORAD_CAT_ID": 40367,
    "ELEMENT_SET_NO": 999,
    "REV_AT_EPOCH": 4198,
    "BSTAR": 0,
    "MEAN_MOTION_DOT": -0.00000306,
    "MEAN_MOTION_DDOT": 0
   }
  },
  {
   "norad": 43491,
   "name": "FENGYUN 2H",
   "intl": "2018-050A",
   "group": "weather",
   "gcat": {
    "class": "C",
    "category": "MET",
    "owner": "NSMC",
    "state": "CN"
   },
   "omm": {
    "OBJECT_NAME": "FENGYUN 2H",
    "OBJECT_ID": "2018-050A",
    "EPOCH": "2026-06-16T01:24:55.033920",
    "MEAN_MOTION": 1.00269672,
    "ECCENTRICITY": 0.0002,
    "INCLINATION": 3.0276,
    "RA_OF_ASC_NODE": 79.0815,
    "ARG_OF_PERICENTER": 138.2067,
    "MEAN_ANOMALY": 147.6875,
    "EPHEMERIS_TYPE": 0,
    "CLASSIFICATION_TYPE": "U",
    "NORAD_CAT_ID": 43491,
    "ELEMENT_SET_NO": 999,
    "REV_AT_EPOCH": 2942,
    "BSTAR": 0,
    "MEAN_MOTION_DOT": -0.00000132,
    "MEAN_MOTION_DDOT": 0
   }
  },
  {
   "norad": 32958,
   "name": "FENGYUN 3A",
   "intl": "2008-026A",
   "group": "weather",
   "gcat": {
    "class": null,
    "category": null,
    "owner": null,
    "state": null
   },
   "omm": {
    "OBJECT_NAME": "FENGYUN 3A",
    "OBJECT_ID": "2008-026A",
    "EPOCH": "2026-06-16T01:27:12.377088",
    "MEAN_MOTION": 14.19570873,
    "ECCENTRICITY": 0.0009544,
    "INCLINATION": 98.6883,
    "RA_OF_ASC_NODE": 107.9147,
    "ARG_OF_PERICENTER": 126.6138,
    "MEAN_ANOMALY": 233.5917,
    "EPHEMERIS_TYPE": 0,
    "CLASSIFICATION_TYPE": "U",
    "NORAD_CAT_ID": 32958,
    "ELEMENT_SET_NO": 999,
    "REV_AT_EPOCH": 93524,
    "BSTAR": 0.000042262,
    "MEAN_MOTION_DOT": 4.6e-7,
    "MEAN_MOTION_DDOT": 0
   }
  },
  {
   "norad": 37214,
   "name": "FENGYUN 3B",
   "intl": "2010-059A",
   "group": "weather",
   "gcat": {
    "class": null,
    "category": null,
    "owner": null,
    "state": null
   },
   "omm": {
    "OBJECT_NAME": "FENGYUN 3B",
    "OBJECT_ID": "2010-059A",
    "EPOCH": "2026-06-16T05:54:26.259264",
    "MEAN_MOTION": 14.14840922,
    "ECCENTRICITY": 0.002185,
    "INCLINATION": 98.9621,
    "RA_OF_ASC_NODE": 213.2565,
    "ARG_OF_PERICENTER": 186.6832,
    "MEAN_ANOMALY": 250.4251,
    "EPHEMERIS_TYPE": 0,
    "CLASSIFICATION_TYPE": "U",
    "NORAD_CAT_ID": 37214,
    "ELEMENT_SET_NO": 999,
    "REV_AT_EPOCH": 80729,
    "BSTAR": -0.000082043,
    "MEAN_MOTION_DOT": -0.00000204,
    "MEAN_MOTION_DDOT": 0
   }
  },
  {
   "norad": 39260,
   "name": "FENGYUN 3C",
   "intl": "2013-052A",
   "group": "weather",
   "gcat": {
    "class": "C",
    "category": "MET",
    "owner": "NSMC",
    "state": "CN"
   },
   "omm": {
    "OBJECT_NAME": "FENGYUN 3C",
    "OBJECT_ID": "2013-052A",
    "EPOCH": "2026-06-16T04:41:51.307008",
    "MEAN_MOTION": 14.15754811,
    "ECCENTRICITY": 0.0015307,
    "INCLINATION": 98.4986,
    "RA_OF_ASC_NODE": 141.116,
    "ARG_OF_PERICENTER": 30.3656,
    "MEAN_ANOMALY": 329.8403,
    "EPHEMERIS_TYPE": 0,
    "CLASSIFICATION_TYPE": "U",
    "NORAD_CAT_ID": 39260,
    "ELEMENT_SET_NO": 999,
    "REV_AT_EPOCH": 65842,
    "BSTAR": 0.000053719,
    "MEAN_MOTION_DOT": 6.4e-7,
    "MEAN_MOTION_DDOT": 0
   }
  }
 ]
}
